[{"OBJECT_NAME":"STARLINK-30577","OBJECT_ID":"2023-158C","EPOCH":"2026-03-09T06:01:31.746432","MEAN_MOTION":15.2756656,"ECCENTRICITY":0.00013632,"INCLINATION":42.9982,"RA_OF_ASC_NODE":29.4411,"ARG_OF_PERICENTER":253.5054,"MEAN_ANOMALY":106.5648,"EPHEMERIS_TYPE":0,"CLASSIFICATION_TYPE":"U","NORAD_CAT_ID":58053,"ELEMENT_SET_NO":999,"REV_AT_EPOCH":13350,"BSTAR":-9.360613e-5,"MEAN_MOTION_DOT":-2.836e-5,"MEAN_MOTION_DDOT":0},{"OBJECT_NAME":"PHISAT 2","OBJECT_ID":"2024-149C","EPOCH":"2026-03-09T18:55:12.732384","MEAN_MOTION":15.29548632,"ECCENTRICITY":0.00011753,"INCLINATION":97.3806,"RA_OF_ASC_NODE":148.6498,"ARG_OF_PERICENTER":168.623,"MEAN_ANOMALY":191.5037,"EPHEMERIS_TYPE":0,"CLASSIFICATION_TYPE":"U","NORAD_CAT_ID":60470,"ELEMENT_SET_NO":999,"REV_AT_EPOCH":8679,"BSTAR":0.00031420974,"MEAN_MOTION_DOT":8.925e-5,"MEAN_MOTION_DDOT":0}]
