STARLINK-30577          
1 58053U 23158C   26068.25106188 -.00002836  00000+0 -93606-4 0  9991
2 58053  42.9982  29.4411 0001363 253.5054 106.5648 15.27566560133500
PHISAT 2                
1 60470U 24149C   26068.78834181  .00008925  00000+0  31421-3 0  9996
2 60470  97.3806 148.6498 0001175 168.6230 191.5037 15.29548631 86792
